[{"name":"GPS BIII-2  (PRN 18)","l1":"1 44506U 19056A   26182.84551479 -.00000081  00000+0  00000+0 0  9990","l2":"2 44506  55.6295 330.5609 0062756 197.8313 333.9324  2.00570204 50368","cat":"navigation"},{"name":"GPS BIII-3  (PRN 23)","l1":"1 45854U 20041A   26180.70415300 -.00000068  00000+0  00000+0 0  9993","l2":"2 45854  56.6684  28.4552 0065570 209.6857 153.6636  2.00558738 44296","cat":"navigation"},{"name":"GPS BIII-4  (PRN 14)","l1":"1 46826U 20078A   26182.27330976  .00000067  00000+0  00000+0 0  9990","l2":"2 46826  53.9787 210.2073 0074038 207.5025 185.7090  2.00565158 41798","cat":"navigation"},{"name":"GPS BIII-5  (PRN 11)","l1":"1 48859U 21054A   26183.02363622 -.00000082  00000+0  00000+0 0  9999","l2":"2 48859  55.1671 331.8638 0025946 228.3850 172.9360  2.00568335 37052","cat":"navigation"},{"name":"GPS BIII-6  (PRN 28)","l1":"1 55268U 23009A   26182.76388889  .00000040  00000+0  00000+0 0  9998","l2":"2 55268  55.1238 147.9465 0006262 318.3854 293.8670  2.00571084 25533","cat":"navigation"},{"name":"GSAT0223 (GALILEO 27)","l1":"1 49809U 21116A   26183.82905200 -.00000077  00000+0  00000+0 0  9990","l2":"2 49809  57.1560 341.2534 0001768 186.4636 173.1397  1.70476290 28449","cat":"navigation"},{"name":"GSAT0224 (GALILEO 28)","l1":"1 49810U 21116B   26181.59302091 -.00000084  00000+0  00000+0 0  9991","l2":"2 49810  57.1567 341.3123 0001428 163.7362  16.1903  1.70476570 28439","cat":"navigation"},{"name":"BEIDOU-3 IGSO-2","l1":"1 44337U 19035A   26183.82444081 -.00000099  00000+0  00000+0 0  9997","l2":"2 44337  55.2498 158.7251 0039597 216.3437 321.7336  1.00261959 25829","cat":"geostationary"},{"name":"EUTELSAT 5 WEST B","l1":"1 44624U 19067A   26183.72413931 -.00000031  00000+0  00000+0 0  9996","l2":"2 44624   0.0702 331.4543 0003401 130.1820  74.8137  1.00271497 24598","cat":"geostationary"},{"name":"BEIDOU-3 G2","l1":"1 45344U 20017A   26183.82916299 -.00000131  00000+0  00000+0 0  9990","l2":"2 45344   2.8942  47.5704 0002593  45.3695 206.5155  1.00271577 23419","cat":"geostationary"},{"name":"BEIDOU-3 G3","l1":"1 45807U 20040A   26183.81674172 -.00000344  00000+0  00000+0 0  9996","l2":"2 45807   2.4838  67.4780 0002467 333.3982 284.5678  1.00271585 22220","cat":"geostationary"},{"name":"GALAXY 30 (G-30)","l1":"1 46114U 20056C   26183.70012315  .00000000  00000+0  00000+0 0  9996","l2":"2 46114   0.0212  28.7704 0002166  73.6259 305.3858  1.00271672 21447","cat":"geostationary"},{"name":"QZS-1R (MICHIBIKI-1R)","l1":"1 49336U 21096A   26183.60705221 -.00000270  00000+0  00000+0 0  9994","l2":"2 49336  37.4911  79.3558 0755908 272.0505 280.6356  1.00250822 17169","cat":"geostationary"},{"name":"BEIDOU-3 G4","l1":"1 56564U 23066A   26183.75288255 -.00000271  00000+0  00000+0 0  9994","l2":"2 56564   0.4711 335.3583 0005030 176.6908 179.7943  1.00268750 11546","cat":"geostationary"},{"name":"NVS-01 (IRNSS-1J)","l1":"1 56759U 23076A   26183.75080252 -.00000324  00000+0  00000+0 0  9997","l2":"2 56759   2.1315 243.6489 0002933   8.6195  68.3827  1.00271816 11279","cat":"geostationary"},{"name":"COSMOS 2534 [GLONASS-M]","l1":"1 44299U 19030A   26180.66029704  .00000085  00000+0  00000+0 0  9993","l2":"2 44299  64.3700 192.1964 0013517 275.0224  73.0621  2.13102425 55189","cat":"navigation"},{"name":"BEIDOU-3 M24","l1":"1 44542U 19061A   26181.12933678  .00000071  00000+0  00000+0 0  9999","l2":"2 44542  54.3970 182.2910 0008559 358.7023   1.3089  1.86229317 46030","cat":"navigation"},{"name":"BEIDOU-3 M23","l1":"1 44543U 19061B   26182.28421829  .00000070  00000+0  00000+0 0  9997","l2":"2 44543  54.3961 182.2208 0005861 339.3094 346.4976  1.86227570 46056","cat":"navigation"},{"name":"BEIDOU-3 M22","l1":"1 44793U 19078A   26183.11722617 -.00000061  00000+0  00000+0 0  9995","l2":"2 44793  53.9213 299.3025 0005958  49.9871 310.0853  1.86227671 44926","cat":"navigation"},{"name":"BEIDOU-3 M21","l1":"1 44794U 19078B   26178.96140830 -.00000087  00000+0  00000+0 0  9992","l2":"2 44794  53.8982 299.4091 0003978  49.1157 310.9195  1.86227959 44851","cat":"navigation"},{"name":"COSMOS 2544 [GLONASS-M]","l1":"1 44850U 19088A   26183.51498774 -.00000008  00000+0  00000+0 0  9999","l2":"2 44850  65.5733  73.2191 0012628 256.5667 103.3590  2.13103168 51047","cat":"navigation"},{"name":"BEIDOU-3 M19","l1":"1 44864U 19090A   26183.73706045 -.00000037  00000+0  00000+0 0  9996","l2":"2 44864  56.5715  62.2771 0017139 297.4184 221.8650  1.86231685 44527","cat":"navigation"},{"name":"BEIDOU-3 M20","l1":"1 44865U 19090B   26183.66573100 -.00000037  00000+0  00000+0 0  9993","l2":"2 44865  56.5739  62.3139 0015126 311.8646 249.1839  1.86231813 44504","cat":"navigation"},{"name":"COSMOS 2545 [GLONASS-M]","l1":"1 45358U 20018A   26180.42510890 -.00000068  00000+0  00000+0 0  9995","l2":"2 45358  64.3471 311.9885 0008865 229.6303 130.2863  2.13102698 48927","cat":"navigation"},{"name":"COSMOS 2547 [GLONASS-K]","l1":"1 46805U 20075A   26181.55327406  .00000081  00000+0  00000+0 0  9994","l2":"2 46805  64.6009 192.0293 0009399 239.7356 120.2111  2.13100012 44197","cat":"navigation"},{"name":"COSMOS 2557 [GLONASS-K]","l1":"1 52984U 22075A   26180.30969183 -.00000070  00000+0  00000+0 0  9996","l2":"2 52984  64.2907 314.0587 0010591 272.5686  87.3025  2.13102382 30974","cat":"navigation"},{"name":"COSMOS 2559 [GLONASS-K]","l1":"1 54031U 22130A   26183.41419097 -.00000051  00000+0  00000+0 0  9991","l2":"2 54031  64.2614 314.0319 0012865 179.6786 180.3256  2.13101797 29013","cat":"navigation"},{"name":"COSMOS 2564 [GLONASS-M]","l1":"1 54377U 22161A   26182.78812472  .00000080  00000+0  00000+0 0  9992","l2":"2 54377  64.7430 192.2270 0012266 225.1049 134.8302  2.13102081 27946","cat":"navigation"},{"name":"COSMOS 2569 [GLONASS-K2]","l1":"1 57517U 23114A   26181.39268046 -.00000020  00000+0  00000+0 0  9993","l2":"2 57517  65.3095  72.1752 0010196 296.5286  63.4269  2.13103831 22549","cat":"navigation"},{"name":"BEIDOU-3 M28","l1":"1 58654U 23207A   26183.33414366 -.00000040  00000+0  00000+0 0  9995","l2":"2 58654  55.7660  61.7922 0002782 356.6345   3.4321  1.86229871 17125","cat":"navigation"},{"name":"BEIDOU-3 M26","l1":"1 58655U 23207B   26183.13163905 -.00000041  00000+0  00000+0 0  9995","l2":"2 58655  55.7681  61.7855 0002480 322.6167  37.4340  1.86229850 17107","cat":"navigation"}]